XRISM                   
1 57800U 23137A   24177.53918671  .00005072  00000+0  37824-3 0  9997
2 57800  31.0041 319.4475 0009566 291.9773  67.9846 15.01309801 43867
